{
  "type": "FeatureCollection",
  "features": [
    {
      "type": "Feature",
      "properties": {
        "norad_id": 66758,
        "name": "TRANSPORTER-15 CW",
        "group": "last-30-days",
        "lat": -7.992258462794626,
        "lon": -114.92529416897652,
        "alt_km": 515.5029357108779,
        "timestamp": "2025-12-20T11:30:27.105613+00:00",
        "meta_object_name": "TRANSPORTER-15 CW",
        "meta_object_id": "2025-276CW",
        "meta_epoch": "2025-12-20T04:21:15.780096",
        "meta_mean_motion": 15.18046274,
        "meta_eccentricity": 0.0001315,
        "meta_inclination": 97.4421,
        "meta_ra_of_asc_node": 65.8332,
        "meta_arg_of_pericenter": 117.8258,
        "meta_mean_anomaly": 242.311,
        "meta_ephemeris_type": 0,
        "meta_classification_type": "U",
        "meta_norad_cat_id": 66758,
        "meta_element_set_no": 999,
        "meta_rev_at_epoch": 325,
        "meta_bstar": 0.00040361,
        "meta_mean_motion_dot": 8.153e-05,
        "meta_mean_motion_ddot": 0,
        "tle_line1": "1 66758U 25276CW  25354.18143264  .00008153  00000+0  40361-3 0  9995",
        "tle_line2": "2 66758  97.4421  65.8332 0001315 117.8258 242.3110 15.18046274  3251"
      },
      "geometry": {
        "type": "Point",
        "coordinates": [
          -114.92529416897652,
          -7.992258462794626
        ]
      }
    },
    {
      "type": "Feature",
      "properties": {
        "norad_id": 66759,
        "name": "TRANSPORTER-15 CX",
        "group": "last-30-days",
        "lat": -15.70552836715962,
        "lon": -115.98077955532855,
        "alt_km": 515.641887758743,
        "timestamp": "2025-12-20T11:30:27.105623+00:00",
        "meta_object_name": "TRANSPORTER-15 CX",
        "meta_object_id": "2025-276CX",
        "meta_epoch": "2025-12-19T14:05:02.213952",
        "meta_mean_motion": 15.18161392,
        "meta_eccentricity": 0.0001493,
        "meta_inclination": 97.4394,
        "meta_ra_of_asc_node": 65.2472,
        "meta_arg_of_pericenter": 144.8645,
        "meta_mean_anomaly": 215.2688,
        "meta_ephemeris_type": 0,
        "meta_classification_type": "U",
        "meta_norad_cat_id": 66759,
        "meta_element_set_no": 999,
        "meta_rev_at_epoch": 316,
        "meta_bstar": 0.0002502,
        "meta_mean_motion_dot": 5.044e-05,
        "meta_mean_motion_ddot": 0,
        "tle_line1": "1 66759U 25276CX  25353.58683118  .00005044  00000+0  25020-3 0  9997",
        "tle_line2": "2 66759  97.4394  65.2472 0001493 144.8645 215.2688 15.18161392  3165"
      },
      "geometry": {
        "type": "Point",
        "coordinates": [
          -115.98077955532855,
          -15.70552836715962
        ]
      }
    },
    {
      "type": "Feature",
      "properties": {
        "norad_id": 66760,
        "name": "TRANSPORTER-15 CY",
        "group": "last-30-days",
        "lat": -17.921481422444,
        "lon": -116.29126312579892,
        "alt_km": 516.424106521933,
        "timestamp": "2025-12-20T11:30:27.105633+00:00",
        "meta_object_name": "TRANSPORTER-15 CY",
        "meta_object_id": "2025-276CY",
        "meta_epoch": "2025-12-20T04:18:39.250944",
        "meta_mean_motion": 15.18157301,
        "meta_eccentricity": 0.0001603,
        "meta_inclination": 97.4409,
        "meta_ra_of_asc_node": 65.8363,
        "meta_arg_of_pericenter": 112.1646,
        "meta_mean_anomaly": 247.9758,
        "meta_ephemeris_type": 0,
        "meta_classification_type": "U",
        "meta_norad_cat_id": 66760,
        "meta_element_set_no": 999,
        "meta_rev_at_epoch": 325,
        "meta_bstar": 0.00031464,
        "meta_mean_motion_dot": 6.36e-05,
        "meta_mean_motion_ddot": 0,
        "tle_line1": "1 66760U 25276CY  25354.17962096  .00006360  00000+0  31464-3 0  9991",
        "tle_line2": "2 66760  97.4409  65.8363 0001603 112.1646 247.9758 15.18157301  3256"
      },
      "geometry": {
        "type": "Point",
        "coordinates": [
          -116.29126312579892,
          -17.921481422444
        ]
      }
    },
    {
      "type": "Feature",
      "properties": {
        "norad_id": 66761,
        "name": "TRANSPORTER-15 CZ",
        "group": "last-30-days",
        "lat": -29.219956975565367,
        "lon": -118.0562386659972,
        "alt_km": 516.4833193488685,
        "timestamp": "2025-12-20T11:30:27.105643+00:00",
        "meta_object_name": "TRANSPORTER-15 CZ",
        "meta_object_id": "2025-276CZ",
        "meta_epoch": "2025-12-20T02:40:49.176192",
        "meta_mean_motion": 15.1841514,
        "meta_eccentricity": 0.0001491,
        "meta_inclination": 97.4407,
        "meta_ra_of_asc_node": 65.774,
        "meta_arg_of_pericenter": 126.7583,
        "meta_mean_anomaly": 233.3788,
        "meta_ephemeris_type": 0,
        "meta_classification_type": "U",
        "meta_norad_cat_id": 66761,
        "meta_element_set_no": 999,
        "meta_rev_at_epoch": 324,
        "meta_bstar": 0.00036289,
        "meta_mean_motion_dot": 7.402e-05,
        "meta_mean_motion_ddot": 0,
        "tle_line1": "1 66761U 25276CZ  25354.11168028  .00007402  00000+0  36289-3 0  9997",
        "tle_line2": "2 66761  97.4407  65.7740 0001491 126.7583 233.3788 15.18415140  3248"
      },
      "geometry": {
        "type": "Point",
        "coordinates": [
          -118.0562386659972,
          -29.219956975565367
        ]
      }
    },
    {
      "type": "Feature",
      "properties": {
        "norad_id": 66762,
        "name": "TRANSPORTER-15 DA",
        "group": "last-30-days",
        "lat": 46.66684209191641,
        "lon": -105.9300771482159,
        "alt_km": 512.2765943280483,
        "timestamp": "2025-12-20T11:30:27.105652+00:00",
        "meta_object_name": "TRANSPORTER-15 DA",
        "meta_object_id": "2025-276DA",
        "meta_epoch": "2025-12-20T04:35:32.950176",
        "meta_mean_motion": 15.1713775,
        "meta_eccentricity": 0.0002521,
        "meta_inclination": 97.4418,
        "meta_ra_of_asc_node": 65.8233,
        "meta_arg_of_pericenter": 306.2069,
        "meta_mean_anomaly": 53.8931,
        "meta_ephemeris_type": 0,
        "meta_classification_type": "U",
        "meta_norad_cat_id": 66762,
        "meta_element_set_no": 999,
        "meta_rev_at_epoch": 325,
        "meta_bstar": -0.0031239,
        "meta_mean_motion_dot": -0.0006147,
        "meta_mean_motion_ddot": 0,
        "tle_line1": "1 66762U 25276DA  25354.19135359 -.00061470  00000+0 -31239-2 0  9993",
        "tle_line2": "2 66762  97.4418  65.8233 0002521 306.2069  53.8931 15.17137750  3251"
      },
      "geometry": {
        "type": "Point",
        "coordinates": [
          -105.9300771482159,
          46.66684209191641
        ]
      }
    },
    {
      "type": "Feature",
      "properties": {
        "norad_id": 66763,
        "name": "TRANSPORTER-15 DB",
        "group": "last-30-days",
        "lat": 36.84813235127186,
        "lon": -108.26326326191058,
        "alt_km": 510.98257601919704,
        "timestamp": "2025-12-20T11:30:27.105665+00:00",
        "meta_object_name": "TRANSPORTER-15 DB",
        "meta_object_id": "2025-276DB",
        "meta_epoch": "2025-12-20T04:32:57.776640",
        "meta_mean_motion": 15.17256655,
        "meta_eccentricity": 0.0001099,
        "meta_inclination": 97.443,
        "meta_ra_of_asc_node": 65.8296,
        "meta_arg_of_pericenter": 138.4182,
        "meta_mean_anomaly": 221.7136,
        "meta_ephemeris_type": 0,
        "meta_classification_type": "U",
        "meta_norad_cat_id": 66763,
        "meta_element_set_no": 999,
        "meta_rev_at_epoch": 325,
        "meta_bstar": -0.0041962,
        "meta_mean_motion_dot": -0.00082583,
        "meta_mean_motion_ddot": 0,
        "tle_line1": "1 66763U 25276DB  25354.18955760 -.00082583  00000+0 -41962-2 0  9991",
        "tle_line2": "2 66763  97.4430  65.8296 0001099 138.4182 221.7136 15.17256655  3254"
      },
      "geometry": {
        "type": "Point",
        "coordinates": [
          -108.26326326191058,
          36.84813235127186
        ]
      }
    },
    {
      "type": "Feature",
      "properties": {
        "norad_id": 66764,
        "name": "TRANSPORTER-15 DC",
        "group": "last-30-days",
        "lat": 15.074461546693321,
        "lon": -111.86458157633547,
        "alt_km": 512.8725302247667,
        "timestamp": "2025-12-20T11:30:27.105677+00:00",
        "meta_object_name": "TRANSPORTER-15 DC",
        "meta_object_id": "2025-276DC",
        "meta_epoch": "2025-12-20T04:27:16.607232",
        "meta_mean_motion": 15.17669781,
        "meta_eccentricity": 0.000179,
        "meta_inclination": 97.4416,
        "meta_ra_of_asc_node": 65.8291,
        "meta_arg_of_pericenter": 206.6425,
        "meta_mean_anomaly": 153.4717,
        "meta_ephemeris_type": 0,
        "meta_classification_type": "U",
        "meta_norad_cat_id": 66764,
        "meta_element_set_no": 999,
        "meta_rev_at_epoch": 325,
        "meta_bstar": 0.00014778,
        "meta_mean_motion_dot": 2.909e-05,
        "meta_mean_motion_ddot": 0,
        "tle_line1": "1 66764U 25276DC  25354.18560888  .00002909  00000+0  14778-3 0  9993",
        "tle_line2": "2 66764  97.4416  65.8291 0001790 206.6425 153.4717 15.17669781  3254"
      },
      "geometry": {
        "type": "Point",
        "coordinates": [
          -111.86458157633547,
          15.074461546693321
        ]
      }
    }
  ]
}